NORAD_CAT_ID,OBJECT_NAME,OBJECT_TYPE,EPOCH,MEAN_MOTION,ECCENTRICITY,INCLINATION,RA_OF_ASC_NODE,ARG_OF_PERICENTER,MEAN_ANOMALY,BSTAR,MEAN_MOTION_DOT,MEAN_MOTION_DDOT,TLE_LINE0,TLE_LINE1,TLE_LINE2,SEMIMAJOR_AXIS,PERIOD,APOGEE,PERIGEE,DECAYED
53996.0,STARLINK-5131,PAYLOAD,2023-02-28 11:11:37,15.08852599,0.0001186,53.2142,135.5041,92.5871,267.5257,0.00014938,2.091e-05,0.0,0 STARLINK-5131,1 53996U 22125AJ  23059.46640134  .00002091  00000-0  14938-3 0  9991,2 53996  53.2142 135.5041 0001186  92.5871 267.5257 15.08852599 22682,6917.842,95.437,540.527,538.886,0.0
53996.0,STARLINK-5131,PAYLOAD,2023-02-28 12:47:00,15.08850448,0.0001235,53.2139,135.2067,90.6066,269.5068,0.00032299,4.858e-05,0.0,0 STARLINK-5131,1 53996U 22125AJ  23059.53264312  .00004858  00000-0  32299-3 0  9992,2 53996  53.2139 135.2067 0001235  90.6066 269.5068 15.08850448 22620,6917.848,95.437,540.568,538.859,0.0
53996.0,STARLINK-5131,PAYLOAD,2023-02-28 14:22:22,15.08864807,9.53e-05,53.2146,134.9055,116.9923,243.1167,0.00063543,9.846e-05,0.0,0 STARLINK-5131,1 53996U 22125AJ  23059.59887566  .00009846  00000-0  63543-3 0  9998,2 53996  53.2146 134.9055 0000953 116.9923 243.1167 15.08864807 22702,6917.805,95.436,540.329,539.01,0.0
53996.0,STARLINK-5131,PAYLOAD,2023-02-28 22:19:20,15.08821076,0.0001463,53.2147,133.4201,78.5925,281.5232,-0.00021177,-3.655e-05,0.0,0 STARLINK-5131,1 53996U 22125AJ  23059.93009505 -.00003655  00000-0 -21177-3 0  9996,2 53996  53.2147 133.4201 0001463  78.5925 281.5232 15.08821076 22689,6917.938,95.439,540.815,538.791,0.0
53996.0,STARLINK-5131,PAYLOAD,2023-03-01 11:02:26,15.08808454,0.000123,53.2142,131.0412,83.9522,276.161,-0.00025009,-4.262e-05,0.0,0 STARLINK-5131,1 53996U 22125AJ  23060.46002736 -.00004262  00000-0 -25009-3 0  9998,2 53996  53.2142 131.0412 0001230  83.9522 276.1610 15.08808454 22839,6917.977,95.44,540.693,538.991,0.0
53996.0,STARLINK-5131,PAYLOAD,2023-03-01 15:48:36,15.08812477,0.0001126,53.2144,130.1487,74.9832,285.1285,0.0001465,2.043e-05,0.0,0 STARLINK-5131,1 53996U 22125AJ  23060.65875043  .00002043  00000-0  14650-3 0  9991,2 53996  53.2144 130.1487 0001126  74.9832 285.1285 15.08812477 22794,6917.965,95.439,540.608,539.051,0.0
53996.0,STARLINK-5131,PAYLOAD,2023-03-01 22:10:08,15.08824186,0.0001379,53.2145,128.96,78.7383,281.3764,0.001201,0.00018869,0.0,0 STARLINK-5131,1 53996U 22125AJ  23060.92371469  .00018869  00000-0  12010-2 0  9994,2 53996  53.2145 128.9600 0001379  78.7383 281.3764 15.08824186 22903,6917.929,95.439,540.748,538.84,0.0
53996.0,STARLINK-5131,PAYLOAD,2023-03-02 15:39:22,15.08898153,0.0001438,53.2141,125.6888,64.4759,295.6382,0.0025115,0.00039973,0.0,0 STARLINK-5131,1 53996U 22125AJ  23061.65234017  .00039973  00000-0  25115-2 0  9991,2 53996  53.2141 125.6888 0001438  64.4759 295.6382 15.08898153 23018,6917.703,95.434,540.562,538.573,0.0
53996.0,STARLINK-5131,PAYLOAD,2023-03-03 07:33:12,15.08886518,0.0001274,53.2144,122.7149,76.5334,283.58,0.002297,0.00036505,0.0,0 STARLINK-5131,1 53996U 22125AJ  23062.31473376  .00036505  00000-0  22970-2 0  9992,2 53996  53.2144 122.7149 0001274  76.5334 283.5800 15.08886518 23114,6917.738,95.435,540.485,538.722,0.0
53996.0,STARLINK-5131,PAYLOAD,2023-03-03 10:43:59,15.08886301,0.0001423,53.2141,122.1201,53.2035,306.9087,0.0025508,0.00040594,0.0,0 STARLINK-5131,1 53996U 22125AJ  23062.44721212  .00040594  00000-0  25508-2 0  9994,2 53996  53.2141 122.1201 0001423  53.2035 306.9087 15.08886301 23061,6917.739,95.435,540.588,538.619,0.0
53996.0,STARLINK-5131,PAYLOAD,2023-03-03 20:16:17,15.08847012,0.0001629,53.2147,120.3359,82.4347,277.683,0.001618,0.00025561,0.0,0 STARLINK-5131,1 53996U 22125AJ  23062.84465047  .00025561  00000-0  16180-2 0  9992,2 53996  53.2147 120.3359 0001629  82.4347 277.6830 15.08847012 23122,6917.859,95.437,540.851,538.597,0.0
53996.0,STARLINK-5131,PAYLOAD,2023-03-04 04:13:13,15.08859721,0.0002094,53.2146,118.8494,110.9478,249.1738,0.0018771,0.00029729,0.0,0 STARLINK-5131,1 53996U 22125AJ  23063.17585040  .00029729  00000-0  18771-2 0  9993,2 53996  53.2146 118.8494 0002094 110.9478 249.1738 15.08859721 23246,6917.82,95.436,541.134,538.237,0.0
53996.0,STARLINK-5131,PAYLOAD,2023-03-04 08:59:22,15.08853132,0.0001497,53.2151,117.9581,108.3077,251.8078,0.0016779,0.00026526,0.0,0 STARLINK-5131,1 53996U 22125AJ  23063.37457085  .00026526  00000-0  16779-2 0  9990,2 53996  53.2151 117.9581 0001497 108.3077 251.8078 15.08853132 23271,6917.84,95.437,540.741,538.67,0.0
53996.0,STARLINK-5131,PAYLOAD,2023-03-04 10:34:46,15.08850551,0.0001496,53.2153,117.6603,107.5351,252.5804,0.0014262,0.00022489,0.0,0 STARLINK-5131,1 53996U 22125AJ  23063.44081057  .00022489  00000-0  14262-2 0  9999,2 53996  53.2153 117.6603 0001496 107.5351 252.5804 15.08850551 23211,6917.848,95.437,540.748,538.678,0.0
53996.0,STARLINK-5131,PAYLOAD,2023-03-04 20:07:05,15.08823711,0.0001297,53.2149,115.8747,107.4219,252.6915,-0.00022459,-3.859e-05,0.0,0 STARLINK-5131,1 53996U 22125AJ  23063.83825443 -.00003859  00000-0 -22459-3 0  9997,2 53996  53.2149 115.8747 0001297 107.4219 252.6915 15.08823711 23274,6917.93,95.439,540.692,538.898,0.0
53996.0,STARLINK-5131,PAYLOAD,2023-03-05 07:14:47,15.08838455,0.0001167,53.2149,113.7933,118.9898,241.1211,0.0016262,0.00025687,0.0,0 STARLINK-5131,1 53996U 22125AJ  23064.30193665  .00025687  00000-0  16262-2 0  9999,2 53996  53.2149 113.7933 0001167 118.9898 241.1211 15.08838455 23345,6917.885,95.438,540.557,538.943,0.0
53996.0,STARLINK-5131,PAYLOAD,2023-03-05 19:57:52,15.08853869,0.0001196,53.2145,111.4138,91.4222,268.6907,0.0019643,0.00031124,0.0,0 STARLINK-5131,1 53996U 22125AJ  23064.83185792  .00031124  00000-0  19643-2 0  9998,2 53996  53.2145 111.4138 0001196  91.4222 268.6907 15.08853869 23499,6917.838,95.437,540.53,538.876,0.0
53996.0,STARLINK-5131,PAYLOAD,2023-03-06 11:51:43,15.08875269,0.000115,53.214,108.4392,95.0221,265.0903,0.0024934,0.00039656,0.0,0 STARLINK-5131,1 53996U 22125AJ  23065.49425191  .00039656  00000-0  24934-2 0  9998,2 53996  53.2140 108.4392 0001150  95.0221 265.0903 15.08875269 23597,6917.773,95.435,540.433,538.842,0.0
53996.0,STARLINK-5131,PAYLOAD,2023-03-06 19:48:39,15.08829039,0.0001261,53.214,106.9531,92.6889,267.4247,-0.0008216,-0.00013336,0.0,0 STARLINK-5131,1 53996U 22125AJ  23065.82545554 -.00013336  00000-0 -82160-3 0  9996,2 53996  53.2140 106.9531 0001261  92.6889 267.4247 15.08829039 23648,6917.914,95.438,540.651,538.907,0.0
53996.0,STARLINK-5131,PAYLOAD,2023-03-07 08:31:43,15.08922289,0.0001118,53.2138,104.5746,88.6378,271.4743,0.0069523,0.0011238,0.0,0 STARLINK-5131,1 53996U 22125AJ  23066.35536443  .00112380  00000-0  69523-2 0  9996,2 53996  53.2138 104.5746 0001118  88.6378 271.4743 15.08922289 23722,6917.629,95.432,540.267,538.72,0.0
53996.0,STARLINK-5131,PAYLOAD,2023-03-07 14:53:15,15.08931345,0.0001563,53.2133,103.384,82.4158,277.7011,0.0037639,0.00060278,0.0,0 STARLINK-5131,1 53996U 22125AJ  23066.62031270  .00060278  00000-0  37639-2 0  9995,2 53996  53.2133 103.3840 0001563  82.4158 277.7011 15.08931345 23765,6917.601,95.432,540.547,538.385,0.0
53996.0,STARLINK-5131,PAYLOAD,2023-03-08 02:00:57,15.08826966,0.0001378,53.2133,101.3022,106.8564,253.2579,-0.0010501,-0.00016955,0.0,0 STARLINK-5131,1 53996U 22125AJ  23067.08400312 -.00016955  00000-0 -10501-2 0  9997,2 53996  53.2133 101.3022 0001378 106.8564 253.2579 15.08826966 23839,6917.92,95.438,540.739,538.832,0.0
53996.0,STARLINK-5131,PAYLOAD,2023-03-08 19:30:13,15.08831878,0.0001516,53.2118,98.0321,93.5696,266.547,0.0017463,0.00027608,0.0,0 STARLINK-5131,1 53996U 22125AJ  23067.81265893  .00027608  00000-0  17463-2 0  9990,2 53996  53.2118  98.0321 0001516  93.5696 266.5470 15.08831878 23945,6917.905,95.438,540.819,538.721,0.0
53996.0,STARLINK-5131,PAYLOAD,2023-03-09 19:21:01,15.08849214,0.000179,53.2131,93.5716,89.4979,270.6218,0.0011577,0.0001819,0.0,0 STARLINK-5131,1 53996U 22125AJ  23068.80626371  .00018190  00000-0  11577-2 0  9998,2 53996  53.2131  93.5716 0001790  89.4979 270.6218 15.08849214 24096,6917.852,95.437,540.956,538.479,0.0
53996.0,STARLINK-5131,PAYLOAD,2023-03-10 08:04:05,15.08858832,0.0001493,53.214,91.1917,100.4233,259.6927,0.00088558,0.00013841,0.0,0 STARLINK-5131,1 53996U 22125AJ  23069.33617865  .00013841  00000-0  88558-3 0  9997,2 53996  53.2140  91.1917 0001493 100.4233 259.6927 15.08858832 24179,6917.823,95.436,540.721,538.655,0.0
53996.0,STARLINK-5131,PAYLOAD,2023-03-11 11:05:39,15.08839611,0.0001315,53.2143,86.1355,91.6302,268.4841,0.00024924,3.681e-05,0.0,0 STARLINK-5131,1 53996U 22125AJ  23070.46226603  .00003681  00000-0  24924-3 0  9997,2 53996  53.2143  86.1355 0001315  91.6302 268.4841 15.08839611 24349,6917.882,95.438,540.656,538.837,0.0
53996.0,STARLINK-5131,PAYLOAD,2023-03-11 12:41:02,15.08841864,0.0001345,53.215,85.8386,92.2502,267.8644,0.00029382,4.392e-05,0.0,0 STARLINK-5131,1 53996U 22125AJ  23070.52850532  .00004392  00000-0  29382-3 0  9991,2 53996  53.2150  85.8386 0001345  92.2502 267.8644 15.08841864 24289,6917.875,95.437,540.67,538.809,0.0
53996.0,STARLINK-5131,PAYLOAD,2023-03-12 01:24:08,15.08831382,0.0001498,53.2166,83.4584,98.9639,261.1523,0.00010609,1.4e-05,0.0,0 STARLINK-5131,1 53996U 22125AJ  23071.05843068  .00001400  00000-0  10609-3 0  9995,2 53996  53.2166  83.4584 0001498  98.9639 261.1523 15.08831382 24437,6917.907,95.438,540.808,538.735,0.0
53996.0,STARLINK-5131,PAYLOAD,2023-03-12 12:31:49,15.08850929,0.0001647,53.2158,81.3746,101.5554,258.5623,0.0005281,8.129e-05,0.0,0 STARLINK-5131,1 53996U 22125AJ  23071.52210283  .00008129  00000-0  52810-3 0  9999,2 53996  53.2158  81.3746 0001647 101.5554 258.5623 15.08850929 24437,6917.847,95.437,540.851,538.573,0.0
53996.0,STARLINK-5131,PAYLOAD,2023-03-13 10:47:14,15.08836212,0.0001212,53.2156,77.2151,104.1797,255.933,6.5336e-05,7.52e-06,0.0,0 STARLINK-5131,1 53996U 22125AJ  23072.44947038  .00000752  00000-0  65336-4 0  9998,2 53996  53.2156  77.2151 0001212 104.1797 255.9330 15.08836212 24643,6917.892,95.438,540.595,538.919,0.0
